IRIDIUM 921 [-]         
1 24873U 97034E   24021.95114287  .00025115  00000+0  85010-3 0  9993
2 24873  86.3858   0.4401 0008433  91.6396 268.5819 15.30439555452601
IRIDIUM 26 [-]          
1 24903U 97043A   24021.91037833  .00000781  00000+0  26123-3 0  9996
2 24903  86.3985 325.5693 0002183  81.9496 278.1949 14.36172004383195
IRIDIUM 22 [-]          
1 24907U 97043E   24021.92229285  .00000759  00000+0  25941-3 0  9997
2 24907  86.3989 328.6832 0002222  87.8767 272.2684 14.35071371383287
DUMMY MASS 1 [-]        
1 24925U 97048A   24021.93440636  .00000778  00000+0  85840-4 0  9994
2 24925  86.3348  11.9998 0007963 144.6726 215.5028 14.86010126429038
DUMMY MASS 2 [-]        
1 24926U 97048B   24021.94716733  .00000774  00000+0  85812-4 0  9995
2 24926  86.3346  13.5105 0008320 155.6235 204.5384 14.85770361428822
IRIDIUM 29 [-]          
1 24944U 97051A   24021.90198817  .00000717  00000+0  24249-3 0  9995
2 24944  86.3973 358.6295 0002401  93.0379 267.1092 14.35528516379755
IRIDIUM 33 [-]          
1 24946U 97051C   24021.93293979  .00000585  00000+0  20161-3 0  9997
2 24946  86.3888 357.8809 0006424 323.0621  37.0131 14.34233653379302
IRIDIUM 28 [-]          
1 24948U 97051E   24021.93349161  .00000795  00000+0  26472-3 0  9998
2 24948  86.3981 356.4274 0002030  79.2605 280.8821 14.36469209380283
